[{"OBJECT_NAME":"SAOCOM 1A","OBJECT_ID":"2018-076A","EPOCH":"2026-03-09T23:06:42.673824","MEAN_MOTION":14.82173643,"ECCENTRICITY":0.00013387,"INCLINATION":97.8895,"RA_OF_ASC_NODE":257.1316,"ARG_OF_PERICENTER":83.6952,"MEAN_ANOMALY":276.4413,"EPHEMERIS_TYPE":0,"CLASSIFICATION_TYPE":"U","NORAD_CAT_ID":43641,"ELEMENT_SET_NO":999,"REV_AT_EPOCH":40140,"BSTAR":0.0001704308,"MEAN_MOTION_DOT":1.305e-5,"MEAN_MOTION_DDOT":0},{"OBJECT_NAME":"SL-14 R\/B","OBJECT_ID":"1984-013B","EPOCH":"2026-03-09T21:53:32.043552","MEAN_MOTION":14.85593199,"ECCENTRICITY":0.00173304,"INCLINATION":82.5338,"RA_OF_ASC_NODE":55.8507,"ARG_OF_PERICENTER":246.9653,"MEAN_ANOMALY":176.0622,"EPHEMERIS_TYPE":0,"CLASSIFICATION_TYPE":"U","NORAD_CAT_ID":14700,"ELEMENT_SET_NO":999,"REV_AT_EPOCH":25260,"BSTAR":7.3984203e-5,"MEAN_MOTION_DOT":6.65e-6,"MEAN_MOTION_DDOT":0}]
